     2.100          NAVIGATION                              RINEX VERSION / TYPE
fic2rin                                 07/13/2008 01:25:32 PGM / RUN BY / DATE
                                                            END OF HEADER
 2 08  7 12 16  0  0.0  .202385243028D-03 -.238742359215D-11  .000000000000D+00
     .520000000000D+02  .681562500000D+02  .455304679553D-08 -.259976396622D+01
     .375136733055D-05  .875323661603D-02  .929646193981D-05  .515375566673D+04
     .576000000000D+06 -.102445483208D-06 -.926408687840D+00  .856816768646D-07
     .942926874769D+00  .188031250000D+03  .260462253513D+01 -.789782897628D-08
    -.153934983439D-09  .100000000000D+01  .148700000000D+04  .000000000000D+00
     .240000000000D+01  .000000000000D+00 -.172294676304D-07  .520000000000D+02
     .568806000000D+06  .400000000000D+01
 3 08  7 12 16  0  0.0  .254619866610D-03  .522959453519D-11  .000000000000D+00
     .860000000000D+02 -.115625000000D+02  .530022077547D-08 -.296983202561D+01
    -.581145286560D-06  .108011243865D-01  .680796802044D-05  .515368593216D+04
     .576000000000D+06  .204890966415D-07 -.207099990386D+01 -.102445483208D-06
     .925730955930D+00  .228218750000D+03  .822702063860D+00 -.817748348215D-08
    -.124290891500D-09  .100000000000D+01  .148700000000D+04  .000000000000D+00
     .340000000000D+01  .000000000000D+00 -.419095158577D-08  .860000000000D+02
     .568806000000D+06  .400000000000D+01
 4 08  7 12 16  0  0.0 -.113627873361D-03 -.966338120634D-11  .000000000000D+00
     .430000000000D+02  .654375000000D+02  .465126517244D-08  .104717731514D+00
     .354647636414D-05  .817611475941D-02  .870600342751D-05  .515355683899D+04
     .576000000000D+06  .130385160446D-06 -.907603284086D+00  .782310962677D-07
     .942234033841D+00  .201250000000D+03  .379567070286D+00 -.815462538717D-08
    -.130362572982D-09  .100000000000D+01  .148700000000D+04  .000000000000D+00
     .240000000000D+01  .000000000000D+00 -.605359673500D-08  .430000000000D+02
     .568806000000D+06  .400000000000D+01
 5 08  7 12 16  0  0.0 -.358316581696D-03  .202362571144D-10  .000000000000D+00
     .420000000000D+02 -.166562500000D+02  .509128350097D-08 -.232447303392D+00
    -.806525349617D-06  .899038615171D-02  .756047666073D-05  .515355805588D+04
     .576000000000D+06 -.633299350739D-07 -.310329558243D+01  .651925802231D-07
     .943377305783D+00  .222656250000D+03  .123796601178D+01 -.833391856973D-08
     .196436753808D-09  .100000000000D+01  .148700000000D+04  .000000000000D+00
     .240000000000D+01  .000000000000D+00 -.419095158577D-08  .420000000000D+02
     .568806000000D+06  .400000000000D+01
 6 08  7 12 16  0  0.0  .160050578415D-03  .397903932026D-11  .000000000000D+00
     .920000000000D+02 -.101562500000D+02  .519164482427D-08 -.329097550794D+00
    -.406056642532D-06  .590126391035D-02  .707805156708D-05  .515372047234D+04
     .576000000000D+06 -.137835741043D-06 -.200598468792D+01  .139698386192D-06
     .933246306963D+00  .230562500000D+03 -.163217074194D+01 -.833427572747D-08
    -.148577617426D-09  .100000000000D+01  .148700000000D+04  .000000000000D+00
     .240000000000D+01  .000000000000D+00 -.465661287308D-08  .920000000000D+02
     .568806000000D+06  .400000000000D+01
 7 08  7 12 16  0  0.0 -.544078648090D-05  .579802872380D-11  .000000000000D+00
     .980000000000D+02 -.716250000000D+02  .448590114150D-08  .206623203733D+01
    -.357255339622D-05  .190908159129D-02  .811740756035D-05  .515371179771D+04
     .576000000000D+06  .875443220139D-07  .222500397013D+01  .745058059692D-08
     .962971713923D+00  .222812500000D+03  .263587811344D+01 -.800569061201D-08
     .596453416107D-10  .100000000000D+01  .148700000000D+04  .000000000000D+00
     .240000000000D+01  .000000000000D+00 -.107102096081D-07  .980000000000D+02
     .568806000000D+06  .400000000000D+01
 8 08  7 12 16  0  0.0 -.161465723068D-03 -.159161572810D-11  .000000000000D+00
     .790000000000D+02 -.693125000000D+02  .395373611755D-08  .123768496035D+01
    -.352598726749D-05  .103382079396D-01  .815093517303D-05  .515373743248D+04
     .576000000000D+06  .838190317154D-07  .227874943719D+01  .782310962677D-07
     .984177679934D+00  .228968750000D+03  .288524666402D+01 -.771389274317D-08
    -.421446126351D-10  .100000000000D+01  .148700000000D+04  .000000000000D+00
     .340000000000D+01  .000000000000D+00 -.372529029846D-08  .790000000000D+02
     .568806000000D+06  .400000000000D+01
 9 08  7 12 16  0  0.0  .496627762914D-05  .181898940355D-11  .000000000000D+00
     .930000000000D+02 -.814687500000D+02  .436339603867D-08  .847904777655D+00
    -.425986945629D-05  .201022399124D-01  .863522291183D-05  .515366785431D+04
     .576000000000D+06 -.344589352608D-06  .218865493531D+01  .558793544769D-08
     .971973284394D+00  .226812500000D+03  .141928283467D+01 -.820498462769D-08
     .146434671020D-10  .100000000000D+01  .148700000000D+04  .000000000000D+00
     .340000000000D+01  .000000000000D+00 -.558793544769D-08  .930000000000D+02
     .568806000000D+06  .400000000000D+01
10 08  7 12 16  0  0.0 -.282796099782D-05 -.227373675443D-12  .000000000000D+00
     .660000000000D+02  .825625000000D+02  .448982987658D-08 -.174392722918D+01
     .398606061935D-05  .797588960268D-02  .402331352234D-05  .515367152786D+04
     .576000000000D+06  .670552253723D-07  .155367295260D+00 -.132247805595D-06
     .963329031664D+00  .298906250000D+03  .559817583884D+00 -.811712382507D-08
     .262153776900D-09  .100000000000D+01  .148700000000D+04  .000000000000D+00
     .340000000000D+01  .000000000000D+00 -.232830643654D-08  .660000000000D+02
     .568806000000D+06  .400000000000D+01
11 08  7 12 16  0  0.0  .234744511545D-04 -.568434188608D-12  .000000000000D+00
     .113000000000D+03  .377812500000D+02  .595774816412D-08  .163665106753D+01
     .194646418095D-05  .817086093593D-02  .828504562378D-05  .515364044762D+04
     .576000000000D+06 -.111758708954D-06 -.111042713713D+01  .558793544769D-07
     .890629901419D+00  .182312500000D+03  .594094171413D+00 -.868821904205D-08
    -.302869758598D-09  .100000000000D+01  .148700000000D+04  .000000000000D+00
     .340000000000D+01  .000000000000D+00 -.116415321827D-07  .113000000000D+03
     .568806000000D+06  .400000000000D+01
12 08  7 12 16  0  0.0 -.357154756784D-03  .682121026330D-12  .000000000000D+00
     .490000000000D+02 -.155625000000D+02  .454768942952D-08  .207813856080D+01
    -.754371285439D-06  .332528271247D-02  .740215182304D-05  .515356901360D+04
     .576000000000D+06  .651925802231D-07 -.300888906662D+01  .931322574615D-08
     .964600585429D+00  .235093750000D+03 -.906330143054D+00 -.785425573271D-08
     .146077513286D-09  .100000000000D+01  .148700000000D+04  .000000000000D+00
     .240000000000D+01  .000000000000D+00 -.116415321827D-07  .490000000000D+02
     .568806000000D+06  .400000000000D+01
13 08  7 12 16  0  0.0  .263525173068D-03  .147792889038D-11  .000000000000D+00
     .520000000000D+02 -.418750000000D+02  .396945105786D-08 -.208704851456D+01
    -.204332172871D-05  .383341521956D-02  .399164855480D-05  .515360917664D+04
     .576000000000D+06 -.931322574615D-08  .122545665781D+01  .726431608200D-07
     .995349662000D+00  .320500000000D+03  .150456067291D+01 -.784496963162D-08
     .357157734196D-10  .100000000000D+01  .148700000000D+04  .000000000000D+00
     .240000000000D+01  .000000000000D+00 -.111758708954D-07  .520000000000D+02
     .568806000000D+06  .400000000000D+01
14 08  7 12 16  0  0.0 -.244993250817D-03  .443378667114D-11  .000000000000D+00
     .440000000000D+02 -.429062500000D+02  .407731269358D-08 -.229399069559D+01
    -.220537185669D-05  .385751528665D-02  .350922346115D-05  .515371168518D+04
     .576000000000D+06  .109896063805D-06  .120787740323D+01 -.558793544769D-08
     .989073883880D+00  .325812500000D+03 -.218637382763D+01 -.790925802377D-08
     .207151485834D-10  .100000000000D+01  .148700000000D+04  .000000000000D+00
     .240000000000D+01  .000000000000D+00 -.884756445885D-08  .440000000000D+02
     .568806000000D+06  .400000000000D+01
15 08  7 12 16  0  0.0 -.141607131809D-03 -.625277607469D-11  .000000000000D+00
     .590000000000D+02 -.452187500000D+02  .482341520032D-08 -.138876806930D+01
    -.229105353355D-05  .666900654323D-03  .321492552757D-05  .515367684937D+04
     .576000000000D+06 -.335276126862D-07  .116537364238D+01  .149011611938D-07
     .957450877604D+00  .318937500000D+03 -.124673457452D+01 -.833784730481D-08
    -.357157734196D-10  .100000000000D+01  .148700000000D+04  .000000000000D+00
     .240000000000D+01  .000000000000D+00 -.977888703346D-08  .590000000000D+02
     .568806000000D+06  .400000000000D+01
16 08  7 12 16  0  0.0  .117309391499D-03 -.170530256582D-11  .000000000000D+00
     .170000000000D+02 -.167187500000D+02  .444054210926D-08 -.482418854179D+00
    -.860542058945D-06  .477338535711D-02  .761263072491D-05  .515362657928D+04
     .576000000000D+06  .186264514923D-08 -.299245470197D+01 -.894069671631D-07
     .966259432127D+00  .238843750000D+03 -.451292460314D+00 -.791675833619D-08
     .169649923743D-09  .100000000000D+01  .148700000000D+04  .000000000000D+00
     .240000000000D+01  .000000000000D+00 -.977888703346D-08  .170000000000D+02
     .568806000000D+06  .400000000000D+01
17 08  7 12 16  0  0.0  .386065803468D-04  .000000000000D+00  .000000000000D+00
     .105000000000D+03 -.562500000000D+00  .453054585828D-08 -.173885943665D+01
     .782310962677D-07  .364759925287D-02  .739656388760D-05  .515377065277D+04
     .576000000000D+06 -.335276126862D-07 -.195151480724D+01 -.987201929092D-07
     .959313840872D+00  .238843750000D+03 -.276050661206D+01 -.782996900678D-08
    -.205008539429D-09  .100000000000D+01  .148700000000D+04  .000000000000D+00
     .340000000000D+01  .000000000000D+00 -.102445483208D-07  .105000000000D+03
     .568806000000D+06  .400000000000D+01
